{"type": "FeatureCollection", "features": [{"type": "Feature", "properties": {"pincode": "600124", "label": "600124, Poonamallee, Thiruvallur, Tamil Nadu, India", "centroid": [80.0368419, 13.0615518], "approximate": true}, "geometry": {"type": "Polygon", "coordinates": [[[80.07033729672413, 13.080698251231167], [80.07966695213378, 13.067669231226475], [80.0783747095093, 13.041676941672801], [80.0066247417898, 12.974377130427111], [80.0041634088151, 12.974635558475315], [80.01391648594816, 13.063959189973223], [80.0141957089526, 13.065797828526964], [80.0217305211619, 13.104424996720805], [80.07033729672413, 13.080698251231167]]]}}, {"type": "Feature", "properties": {"pincode": "600012", "label": "600012, Sriperumbudur, Kanchipuram, Tamil Nadu, India", "centroid": [80.0173239, 12.8829046], "approximate": true}, "geometry": {"type": "Polygon", "coordinates": [[[80.0066247417898, 12.974377130427111], [80.03294418578734, 12.957221203530926], [80.07706094522503, 12.844219547523702], [80.07601417264407, 12.840974883104138], [80.01037633541395, 12.861353042916054], [80.00826171266392, 12.862122838038909], [80.00623393084253, 12.863091809409438], [80.00431242227566, 12.86425067139269], [80.00251560157001, 12.865588318619045], [80.00086068922434, 12.867091932341863], [79.9993635466472, 12.868747103207202], [79.99803852415978, 12.870537969262688], [79.99689832343938, 12.872447367886597], [79.99595387572225, 12.874457000185044], [79.9952142369351, 12.876547606285556], [79.99468650076408, 12.87869914985069], [79.99437573049924, 12.880891010046698], [79.99428491031406, 12.883102179130226], [79.99441491645396, 12.885311463761642], [80.0041634088151, 12.974635558475315], [80.0066247417898, 12.974377130427111]]]}}, {"type": "Feature", "properties": {"pincode": "600127", "label": "600127, Tiruporur, Chengalpattu, Tamil Nadu, India", "centroid": [80.1486006, 12.8421284], "approximate": true}, "geometry": {"type": "Polygon", "coordinates": [[[80.07706094522503, 12.844219547523702], [80.12206576612994, 12.87726890206519], [80.1228157510727, 12.877539207218701], [80.1732578192311, 12.868283907384194], [80.18093861756306, 12.850719224050415], [80.18561766046773, 12.825849513901998], [80.15278552647776, 12.819899839689784], [80.15055118867691, 12.819604881608733], [80.14829817344481, 12.819525652717614], [80.1460480562022, 12.819662911373856], [80.14382238456803, 12.82001534279016], [80.14164247217879, 12.820579571629287], [80.07601417264407, 12.840974883104138], [80.07706094522503, 12.844219547523702]]]}}, {"type": "Feature", "properties": {"pincode": "600055", "label": "600055, Ambattur, Thiruvallur, Tamil Nadu, India", "centroid": [80.0608495, 13.1845331], "approximate": true}, "geometry": {"type": "Polygon", "coordinates": [[[80.11740367666702, 13.195474120456526], [80.0390453270824, 13.149761146840628], [80.03045712510145, 13.149149333631506], [80.0381921489439, 13.188780449966242], [80.03871265386466, 13.190891530822107], [80.03943754061504, 13.192943918571036], [80.04036012169057, 13.194918664166183], [80.0414718837799, 13.196797534927347], [80.04276256621272, 13.198563182931387], [80.04422025557031, 13.200199305247928], [80.04583149558935, 13.20169079453823], [80.04758141134744, 13.203023878623494], [80.04945384658548, 13.204186247730526], [80.0514315128994, 13.205167168236304], [80.11180880440398, 13.231614712088493], [80.11740367666702, 13.195474120456526]]]}}, {"type": "Feature", "properties": {"pincode": "600072", "label": "600072, Poonamallee, Thiruvallur, Tamil Nadu, India", "centroid": [80.0657443, 13.1184413], "approximate": true}, "geometry": {"type": "Polygon", "coordinates": [[[80.0217305211619, 13.104424996720805], [80.03045712510145, 13.149149333631506], [80.0390453270824, 13.149761146840628], [80.086374498975, 13.129587273453241], [80.08679848921888, 13.121340622049676], [80.07033729672413, 13.080698251231167], [80.0217305211619, 13.104424996720805]]]}}, {"type": "Feature", "properties": {"pincode": "600054", "label": "600054, Poonamallee, Thiruvallur, Tamil Nadu, India", "centroid": [80.1080436, 13.1205303], "approximate": true}, "geometry": {"type": "Polygon", "coordinates": [[[80.11392051295059, 13.132611154390244], [80.11188305466109, 13.108938037452509], [80.08679848921888, 13.121340622049676], [80.086374498975, 13.129587273453241], [80.10241771128317, 13.143020470010619], [80.11392051295059, 13.132611154390244]]]}}, {"type": "Feature", "properties": {"pincode": "600062", "label": "600062, Ambattur, Thiruvallur, Tamil Nadu, India", "centroid": [80.1257409, 13.1393134], "approximate": true}, "geometry": {"type": "Polygon", "coordinates": [[[80.10241771128317, 13.143020470010619], [80.11763163550333, 13.19505790181369], [80.15773859246396, 13.164702298354534], [80.16066412311555, 13.155818487055816], [80.13456552225588, 13.124414681014589], [80.11392051295059, 13.132611154390244], [80.10241771128317, 13.143020470010619]]]}}, {"type": "Feature", "properties": {"pincode": "600069", "label": "600069, Pallavaram, Chengalpattu, Tamil Nadu, India", "centroid": [80.0967722, 13.0001119], "approximate": true}, "geometry": {"type": "Polygon", "coordinates": [[[80.0783747095093, 13.041676941672801], [80.10491305292756, 13.030604822207302], [80.11648773183109, 13.002810171201306], [80.1179585402547, 12.99678133104988], [80.09262114357153, 12.961419778284423], [80.07217620528822, 12.956547033388123], [80.03294418578734, 12.957221203530926], [80.0066247417898, 12.974377130427111], [80.0783747095093, 13.041676941672801]]]}}, {"type": "Feature", "properties": {"pincode": "600065", "label": "600065, Ambattur, Thiruvallur, Tamil Nadu, India", "centroid": [80.080629, 13.1519785], "approximate": true}, "geometry": {"type": "Polygon", "coordinates": [[[80.086374498975, 13.129587273453241], [80.0390453270824, 13.149761146840628], [80.11740367666702, 13.195474120456526], [80.11763163550333, 13.19505790181369], [80.10241771128317, 13.143020470010619], [80.086374498975, 13.129587273453241]]]}}, {"type": "Feature", "properties": {"pincode": "600063", "label": "600063, Tambaram, Chengalpattu, Tamil Nadu, India", "centroid": [80.0951857, 12.9121582], "approximate": true}, "geometry": {"type": "Polygon", "coordinates": [[[80.07706094522503, 12.844219547523702], [80.03294418578734, 12.957221203530926], [80.07217620528822, 12.956547033388123], [80.10622469971247, 12.918956230361015], [80.12206576612994, 12.87726890206519], [80.07706094522503, 12.844219547523702]]]}}, {"type": "Feature", "properties": {"pincode": "600071", "label": "600071, Poonamallee, Thiruvallur, Tamil Nadu, India", "centroid": [80.1000895, 13.1050761], "approximate": true}, "geometry": {"type": "Polygon", "coordinates": [[[80.07033729672413, 13.080698251231167], [80.08679848921888, 13.121340622049676], [80.11188305466109, 13.108938037452509], [80.12302336943523, 13.096116933210318], [80.09065705622757, 13.072463648627844], [80.07966695213378, 13.067669231226475], [80.07033729672413, 13.080698251231167]]]}}, {"type": "Feature", "properties": {"pincode": "600109", "label": "600109, Ambattur, Thiruvallur, Tamil Nadu, India", "centroid": [80.1176495, 13.1197361], "approximate": true}, "geometry": {"type": "Polygon", "coordinates": [[[80.11188305466109, 13.108938037452509], [80.11392051295059, 13.132611154390244], [80.13456552225588, 13.124414681014589], [80.13397638706503, 13.099880364640034], [80.13258942759194, 13.097577243515175], [80.12302336943523, 13.096116933210318], [80.11188305466109, 13.108938037452509]]]}}, {"type": "Feature", "properties": {"pincode": "600045", "label": "600045, Tambaram, Chengalpattu, Tamil Nadu, India", "centroid": [80.1144082, 12.9289079], "approximate": true}, "geometry": {"type": "Polygon", "coordinates": [[[80.09262114357153, 12.961419778284423], [80.10992873471642, 12.956733854048931], [80.12381971462952, 12.943984163177644], [80.12216899107, 12.927964357066084], [80.10622469971247, 12.918956230361015], [80.07217620528822, 12.956547033388123], [80.09262114357153, 12.961419778284423]]]}}, {"type": "Feature", "properties": {"pincode": "600056", "label": "600056, Poonamallee, Thiruvallur, Tamil Nadu, India", "centroid": [80.1216823, 13.0574978], "approximate": true}, "geometry": {"type": "Polygon", "coordinates": [[[80.07966695213378, 13.067669231226475], [80.09065705622757, 13.072463648627844], [80.1440187372044, 13.05992230707672], [80.14502369892683, 13.051007145567686], [80.13651980317914, 13.038231443630073], [80.10491305292756, 13.030604822207302], [80.0783747095093, 13.041676941672801], [80.07966695213378, 13.067669231226475]]]}}, {"type": "Feature", "properties": {"pincode": "600070", "label": "600070, Pallavaram, Chengalpattu, Tamil Nadu, India", "centroid": [80.1283322, 12.9783631], "approximate": true}, "geometry": {"type": "Polygon", "coordinates": [[[80.1179585402547, 12.99678133104988], [80.13511545848577, 12.993040401496916], [80.13259086961745, 12.975028895354912], [80.12922981948088, 12.969720359602768], [80.12211350217785, 12.961681921276059], [80.10992873471642, 12.956733854048931], [80.09262114357153, 12.961419778284423], [80.1179585402547, 12.99678133104988]]]}}, {"type": "Feature", "properties": {"pincode": "600052", "label": "600052, Ponneri, Thiruvallur, Tamil Nadu, India", "centroid": [80.1747284, 13.2014549], "approximate": true}, "geometry": {"type": "Polygon", "coordinates": [[[80.11740367666702, 13.195474120456526], [80.11180880440398, 13.231614712088493], [80.12254679846497, 13.23631631689427], [80.22130126144344, 13.208890800097034], [80.22149538286293, 13.202535911976645], [80.15773859246396, 13.164702298354534], [80.11763163550333, 13.19505790181369], [80.11740367666702, 13.195474120456526]]]}}, {"type": "Feature", "properties": {"pincode": "600053", "label": "600053, Ward 81, Zone 7 Ambattur, Chennai Corporation, Ambattur, Thiruvallur, Tamil Nadu, India", "centroid": [80.1512383, 13.1189613], "approximate": true}, "geometry": {"type": "Polygon", "coordinates": [[[80.13456552225588, 13.124414681014589], [80.16066412311555, 13.155818487055816], [80.1719360618964, 13.143963029075795], [80.1704937841762, 13.112365265865668], [80.13397638706503, 13.099880364640034], [80.13456552225588, 13.124414681014589]]]}}, {"type": "Feature", "properties": {"pincode": "600048", "label": "600048, Tambaram, Chengalpattu, Tamil Nadu, India", "centroid": [80.1191065, 12.9209063], "approximate": true}, "geometry": {"type": "Polygon", "coordinates": [[[80.1273266901633, 12.886627727261601], [80.1228157510727, 12.877539207218701], [80.12206576612994, 12.87726890206519], [80.10622469971247, 12.918956230361015], [80.12216899107, 12.927964357066084], [80.13313381275599, 12.910227531816899], [80.1273266901633, 12.886627727261601]]]}}, {"type": "Feature", "properties": {"pincode": "600073", "label": "600073, Tambaram, Chengalpattu, Tamil Nadu, India", "centroid": [80.1505826, 12.9134526], "approximate": true}, "geometry": {"type": "Polygon", "coordinates": [[[80.13313381275599, 12.910227531816899], [80.14281377738935, 12.924030329115462], [80.164471196456, 12.931036562323857], [80.1729162568755, 12.922322608567946], [80.17321839697449, 12.920828773598664], [80.1273266901633, 12.886627727261601], [80.13313381275599, 12.910227531816899]]]}}, {"type": "Feature", "properties": {"pincode": "600122", "label": "600122, Alandur, Chennai, Tamil Nadu, India", "centroid": [80.1324954, 13.0144147], "approximate": true}, "geometry": {"type": "Polygon", "coordinates": [[[80.10491305292756, 13.030604822207302], [80.13651980317914, 13.038231443630073], [80.14700799995352, 13.022777591322052], [80.14781688129997, 13.01895084781817], [80.11648773183109, 13.002810171201306], [80.10491305292756, 13.030604822207302]]]}}, {"type": "Feature", "properties": {"pincode": "600077", "label": "600077, Ambattur, Thiruvallur, Tamil Nadu, India", "centroid": [80.1252327, 13.0720146], "approximate": true}, "geometry": {"type": "Polygon", "coordinates": [[[80.12302336943523, 13.096116933210318], [80.13258942759194, 13.097577243515175], [80.14794371610208, 13.075953243733197], [80.1440187372044, 13.05992230707672], [80.09065705622757, 13.072463648627844], [80.12302336943523, 13.096116933210318]]]}}, {"type": "Feature", "properties": {"pincode": "600095", "label": "600095, Ward 147, Zone 11 Valasaravakkam, Maduravoyal, Chennai Corporation, Ambattur, Thiruvallur, Tamil Nadu, India", "centroid": [80.1663565, 13.0623381], "approximate": true}, "geometry": {"type": "Polygon", "coordinates": [[[80.1440187372044, 13.05992230707672], [80.14794371610208, 13.075953243733197], [80.15208182865597, 13.076764567499914], [80.18331186013322, 13.068909273523365], [80.18399239329867, 13.067046935245092], [80.18424540423764, 13.06161915986402], [80.16615106570794, 13.046985520731363], [80.14502369892683, 13.051007145567686], [80.1440187372044, 13.05992230707672]]]}}, {"type": "Feature", "properties": {"pincode": "600116", "label": "600116, Zone 11 Valasaravakkam, Maduravoyal, Chennai Corporation, Ambattur, Thiruvallur, Tamil Nadu, India", "centroid": [80.1604809, 13.0326734], "approximate": true}, "geometry": {"type": "Polygon", "coordinates": [[[80.13651980317914, 13.038231443630073], [80.14502369892683, 13.051007145567686], [80.16615106570794, 13.046985520731363], [80.17333867434743, 13.034418952254768], [80.17130848417456, 13.02911985903657], [80.14700799995352, 13.022777591322052], [80.13651980317914, 13.038231443630073]]]}}, {"type": "Feature", "properties": {"pincode": "600128", "label": "600128, Alandur, Chennai, Tamil Nadu, India", "centroid": [80.1353144, 13.0091536], "approximate": true}, "geometry": {"type": "Polygon", "coordinates": [[[80.11648773183109, 13.002810171201306], [80.14781688129997, 13.01895084781817], [80.15463384090056, 13.00291082299108], [80.14802154231505, 12.99392891479359], [80.13511545848577, 12.993040401496916], [80.1179585402547, 12.99678133104988], [80.11648773183109, 13.002810171201306]]]}}, {"type": "Feature", "properties": {"pincode": "600059", "label": "600059, Tambaram, Chengalpattu, Tamil Nadu, India", "centroid": [80.1299653, 12.9273656], "approximate": true}, "geometry": {"type": "Polygon", "coordinates": [[[80.12381971462952, 12.943984163177644], [80.12509637603277, 12.943591913001278], [80.13372849373653, 12.93545382452758], [80.14281377738935, 12.924030329115462], [80.13313381275599, 12.910227531816899], [80.12216899107, 12.927964357066084], [80.12381971462952, 12.943984163177644]]]}}, {"type": "Feature", "properties": {"pincode": "600092", "label": "600092, Pallavaram, Chengalpattu, Tamil Nadu, India", "centroid": [80.1380812, 12.9700615], "approximate": true}, "geometry": {"type": "Polygon", "coordinates": [[[80.12922981948088, 12.969720359602768], [80.14350604910958, 12.972538181814636], [80.14457176999497, 12.962299306333934], [80.12211350217785, 12.961681921276059], [80.12922981948088, 12.969720359602768]]]}}, {"type": "Feature", "properties": {"pincode": "600058", "label": "600058, Ward 86, Zone 7 Ambattur, Chennai Corporation, Ambattur, Thiruvallur, Tamil Nadu, India", "centroid": [80.1596, 13.0954631], "approximate": true}, "geometry": {"type": "Polygon", "coordinates": [[[80.13258942759194, 13.097577243515175], [80.13397638706503, 13.099880364640034], [80.1704937841762, 13.112365265865668], [80.17224856541156, 13.109991812902665], [80.17165512401607, 13.094526194594918], [80.15208182865597, 13.076764567499914], [80.14794371610208, 13.075953243733197], [80.13258942759194, 13.097577243515175]]]}}, {"type": "Feature", "properties": {"pincode": "600074", "label": "600074, Pallavaram, Chengalpattu, Tamil Nadu, India", "centroid": [80.1376089, 12.9771126], "approximate": true}, "geometry": {"type": "Polygon", "coordinates": [[[80.14382355243734, 12.974824402028966], [80.13259086961745, 12.975028895354912], [80.13511545848577, 12.993040401496916], [80.14802154231505, 12.99392891479359], [80.15035339317933, 12.987246945754876], [80.14382355243734, 12.974824402028966]]]}}, {"type": "Feature", "properties": {"pincode": "600043", "label": "600043, Alandur, Chennai, Tamil Nadu, India", "centroid": [80.1493293, 12.9711876], "approximate": true}, "geometry": {"type": "Polygon", "coordinates": [[[80.15035339317933, 12.987246945754876], [80.17077339805955, 12.965455260777768], [80.16080189728953, 12.952381950151537], [80.14457176999497, 12.962299306333934], [80.14350604910958, 12.972538181814636], [80.14382355243734, 12.974824402028966], [80.15035339317933, 12.987246945754876]]]}}, {"type": "Feature", "properties": {"pincode": "600075", "label": "600075, Pallavaram, Chengalpattu, Tamil Nadu, India", "centroid": [80.1375266, 12.9727641], "approximate": true}, "geometry": {"type": "Polygon", "coordinates": [[[80.13259086961745, 12.975028895354912], [80.14382355243734, 12.974824402028966], [80.14350604910958, 12.972538181814636], [80.12922981948088, 12.969720359602768], [80.13259086961745, 12.975028895354912]]]}}, {"type": "Feature", "properties": {"pincode": "600044", "label": "600044, Pallavaram, Chengalpattu, Tamil Nadu, India", "centroid": [80.1385344, 12.9541931], "approximate": true}, "geometry": {"type": "Polygon", "coordinates": [[[80.12211350217785, 12.961681921276059], [80.14457176999497, 12.962299306333934], [80.16080189728953, 12.952381950151537], [80.16059906050634, 12.951207648281185], [80.12509637603277, 12.943591913001278], [80.12381971462952, 12.943984163177644], [80.10992873471642, 12.956733854048931], [80.12211350217785, 12.961681921276059]]]}}, {"type": "Feature", "properties": {"pincode": "600117", "label": "600117, Pallavaram, Chengalpattu, Tamil Nadu, India", "centroid": [80.1824349, 12.9468986], "approximate": true}, "geometry": {"type": "Polygon", "coordinates": [[[80.16080189728953, 12.952381950151537], [80.17077339805955, 12.965455260777768], [80.17121645199475, 12.96562230652353], [80.18658282910478, 12.958854476927163], [80.20261076646376, 12.949229752779386], [80.16269318569185, 12.9413797633102], [80.16182995390876, 12.94474067938205], [80.16059906050634, 12.951207648281185], [80.16080189728953, 12.952381950151537]]]}}, {"type": "Feature", "properties": {"pincode": "600027", "label": "600027, Ward 159, Zone 12 Alandur, Chennai Corporation, Alandur, Chennai, Tamil Nadu, India", "centroid": [80.1667576, 12.9868947], "approximate": true}, "geometry": {"type": "Polygon", "coordinates": [[[80.14802154231505, 12.99392891479359], [80.15463384090056, 13.00291082299108], [80.17464522297615, 13.004639582597592], [80.17652715524393, 13.002229958517962], [80.17484088942734, 12.974638464431894], [80.17191364203543, 12.966651645675475], [80.17121645199475, 12.96562230652353], [80.17077339805955, 12.965455260777768], [80.15035339317933, 12.987246945754876], [80.14802154231505, 12.99392891479359]]]}}, {"type": "Feature", "properties": {"pincode": "600047", "label": "600047, Tambaram, Chengalpattu, Tamil Nadu, India", "centroid": [80.1418194, 12.9394619], "approximate": true}, "geometry": {"type": "Polygon", "coordinates": [[[80.16059906050634, 12.951207648281185], [80.16182995390876, 12.94474067938205], [80.13372849373653, 12.93545382452758], [80.12509637603277, 12.943591913001278], [80.16059906050634, 12.951207648281185]]]}}, {"type": "Feature", "properties": {"pincode": "600064", "label": "600064, Tambaram, Chengalpattu, Tamil Nadu, India", "centroid": [80.1426424, 12.9370662], "approximate": true}, "geometry": {"type": "Polygon", "coordinates": [[[80.14281377738935, 12.924030329115462], [80.13372849373653, 12.93545382452758], [80.16182995390876, 12.94474067938205], [80.16269318569185, 12.9413797633102], [80.164471196456, 12.931036562323857], [80.14281377738935, 12.924030329115462]]]}}, {"type": "Feature", "properties": {"pincode": "600125", "label": "600125, Zone 12 Alandur, Chennai Corporation, Alandur, Chennai, Tamil Nadu, India", "centroid": [80.1637152, 13.0207592], "approximate": true}, "geometry": {"type": "Polygon", "coordinates": [[[80.14700799995352, 13.022777591322052], [80.17130848417456, 13.02911985903657], [80.17619659044759, 13.008061434312795], [80.17464522297615, 13.004639582597592], [80.15463384090056, 13.00291082299108], [80.14781688129997, 13.01895084781817], [80.14700799995352, 13.022777591322052]]]}}, {"type": "Feature", "properties": {"pincode": "600126", "label": "600126, Tambaram, Chengalpattu, Tamil Nadu, India", "centroid": [80.1599034, 12.9014165], "approximate": true}, "geometry": {"type": "Polygon", "coordinates": [[[80.1273266901633, 12.886627727261601], [80.17321839697449, 12.920828773598664], [80.19009677058239, 12.892225347402116], [80.1732578192311, 12.868283907384194], [80.1228157510727, 12.877539207218701], [80.1273266901633, 12.886627727261601]]]}}, {"type": "Feature", "properties": {"pincode": "600050", "label": "600050, Ward 87, Zone 7 Ambattur, Chennai Corporation, Ambattur, Thiruvallur, Tamil Nadu, India", "centroid": [80.183748, 13.0945728], "approximate": true}, "geometry": {"type": "Polygon", "coordinates": [[[80.17224856541156, 13.109991812902665], [80.19266215578544, 13.104348758129246], [80.18436726628914, 13.082137948220781], [80.17165512401607, 13.094526194594918], [80.17224856541156, 13.109991812902665]]]}}, {"type": "Feature", "properties": {"pincode": "600100", "label": "600100, Sholinganallur, Chennai, Tamil Nadu, India", "centroid": [80.197011, 12.9224881], "approximate": true}, "geometry": {"type": "Polygon", "coordinates": [[[80.1729162568755, 12.922322608567946], [80.20987558189604, 12.945620527662225], [80.21580415902503, 12.945803117654089], [80.22680270610063, 12.932684097710888], [80.22921583369012, 12.927923157154147], [80.19829651061546, 12.894037540804964], [80.19009677058239, 12.892225347402116], [80.17321839697449, 12.920828773598664], [80.1729162568755, 12.922322608567946]]]}}, {"type": "Feature", "properties": {"pincode": "600066", "label": "600066, Ward 22, Zone 3 Madhavaram, Chennai Corporation, Madhavaram, Thiruvallur, Tamil Nadu, India", "centroid": [80.1988465, 13.1624323], "approximate": true}, "geometry": {"type": "Polygon", "coordinates": [[[80.15773859246396, 13.164702298354534], [80.22149538286293, 13.202535911976645], [80.22599901413633, 13.19535187386977], [80.22655050496172, 13.184026127400061], [80.22456790719826, 13.160207395077968], [80.2016363706482, 13.143161002643255], [80.1933956616845, 13.140053148578394], [80.1719360618964, 13.143963029075795], [80.16066412311555, 13.155818487055816], [80.15773859246396, 13.164702298354534]]]}}, {"type": "Feature", "properties": {"pincode": "600089", "label": "600089, Zone 11 Valasaravakkam, Maduravoyal, Chennai Corporation, Ambattur, Thiruvallur, Tamil Nadu, India", "centroid": [80.1818443, 13.0248051], "approximate": true}, "geometry": {"type": "Polygon", "coordinates": [[[80.17333867434743, 13.034418952254768], [80.18869954479597, 13.034631843769873], [80.19772584562426, 13.024932621985956], [80.19674474436265, 13.022120922437388], [80.17619659044759, 13.008061434312795], [80.17130848417456, 13.02911985903657], [80.17333867434743, 13.034418952254768]]]}}, {"type": "Feature", "properties": {"pincode": "600087", "label": "600087, Zone 11 Valasaravakkam, Maduravoyal, Chennai Corporation, Ambattur, Thiruvallur, Tamil Nadu, India", "centroid": [80.1815638, 13.0442649], "approximate": true}, "geometry": {"type": "Polygon", "coordinates": [[[80.16615106570794, 13.046985520731363], [80.18424540423764, 13.06161915986402], [80.18617722130165, 13.0596908372402], [80.19134556698405, 13.04639302038319], [80.18869954479597, 13.034631843769873], [80.17333867434743, 13.034418952254768], [80.16615106570794, 13.046985520731363]]]}}, {"type": "Feature", "properties": {"pincode": "600016", "label": "600016, St.Thomas Mount-Pallavaram Cantonment Board, Alandur, Chennai, Tamil Nadu, India", "centroid": [80.194172, 13.0074821], "approximate": true}, "geometry": {"type": "Polygon", "coordinates": [[[80.17464522297615, 13.004639582597592], [80.17619659044759, 13.008061434312795], [80.19674474436265, 13.022120922437388], [80.20689422441491, 13.00209732852909], [80.1922998814579, 12.995346801693435], [80.17652715524393, 13.002229958517962], [80.17464522297615, 13.004639582597592]]]}}, {"type": "Feature", "properties": {"pincode": "600129", "label": "600129, Sholinganallur, Chennai, Tamil Nadu, India", "centroid": [80.1830778, 12.9437536], "approximate": true}, "geometry": {"type": "Polygon", "coordinates": [[[80.16269318569185, 12.9413797633102], [80.20261076646376, 12.949229752779386], [80.20987558189604, 12.945620527662225], [80.1729162568755, 12.922322608567946], [80.164471196456, 12.931036562323857], [80.16269318569185, 12.9413797633102]]]}}, {"type": "Feature", "properties": {"pincode": "600037", "label": "600037, Ward 91, Zone 7 Ambattur, Chennai Corporation, Ambattur, Thiruvallur, Tamil Nadu, India", "centroid": [80.1716788, 13.0826724], "approximate": true}, "geometry": {"type": "Polygon", "coordinates": [[[80.18436726628914, 13.082137948220781], [80.18604875307282, 13.078112039335718], [80.18331186013322, 13.068909273523365], [80.15208182865597, 13.076764567499914], [80.17165512401607, 13.094526194594918], [80.18436726628914, 13.082137948220781]]]}}, {"type": "Feature", "properties": {"pincode": "600067", "label": "600067, Ponneri, Thiruvallur, Tamil Nadu, India", "centroid": [80.1856434, 13.2391744], "approximate": true}, "geometry": {"type": "Polygon", "coordinates": [[[80.23531924483106, 13.240664924690588], [80.22130126144344, 13.208890800097034], [80.12254679846497, 13.23631631689427], [80.17623321099146, 13.259813505043864], [80.17867463130752, 13.260723086658793], [80.1812053660376, 13.2613565493393], [80.22933755047049, 13.270592750419338], [80.23531924483106, 13.240664924690588]]]}}, {"type": "Feature", "properties": {"pincode": "600080", "label": "600080, Zone 7 Ambattur, Chennai Corporation, Ambattur, Thiruvallur, Tamil Nadu, India", "centroid": [80.1902733, 13.1172497], "approximate": true}, "geometry": {"type": "Polygon", "coordinates": [[[80.1704937841762, 13.112365265865668], [80.1719360618964, 13.143963029075795], [80.1933956616845, 13.140053148578394], [80.20316742648251, 13.118479457698609], [80.19320355127937, 13.104403891327081], [80.19266215578544, 13.104348758129246], [80.17224856541156, 13.109991812902665], [80.1704937841762, 13.112365265865668]]]}}, {"type": "Feature", "properties": {"pincode": "600114", "label": "600114, Ward 166, Zone 12 Alandur, Chennai Corporation, Alandur, Chennai, Tamil Nadu, India", "centroid": [80.184359, 12.9858602], "approximate": true}, "geometry": {"type": "Polygon", "coordinates": [[[80.1922998814579, 12.995346801693435], [80.19376070981824, 12.987108358608323], [80.17484088942734, 12.974638464431894], [80.17652715524393, 13.002229958517962], [80.1922998814579, 12.995346801693435]]]}}, {"type": "Feature", "properties": {"pincode": "600105", "label": "600105, Zone 10 Kodambakkam, Chennai Corporation, Chennai, Tamil Nadu, India", "centroid": [80.2006671, 13.0743875], "approximate": true}, "geometry": {"type": "Polygon", "coordinates": [[[80.18331186013322, 13.068909273523365], [80.18604875307282, 13.078112039335718], [80.19691352331023, 13.082842997343734], [80.20783143962926, 13.077822630588573], [80.20620642390058, 13.069755450243022], [80.18399239329867, 13.067046935245092], [80.18331186013322, 13.068909273523365]]]}}, {"type": "Feature", "properties": {"pincode": "600061", "label": "600061, Ward 167, Zone 12 Alandur, Chennai Corporation, Alandur, Chennai, Tamil Nadu, India", "centroid": [80.1890308, 12.9790431], "approximate": true}, "geometry": {"type": "Polygon", "coordinates": [[[80.17484088942734, 12.974638464431894], [80.19376070981824, 12.987108358608323], [80.20033196559154, 12.978257024526684], [80.17191364203543, 12.966651645675475], [80.17484088942734, 12.974638464431894]]]}}, {"type": "Feature", "properties": {"pincode": "600091", "label": "600091, Zone 14 Perungudi, Chennai Corporation, Sholinganallur, Chennai, Tamil Nadu, India", "centroid": [80.1955537, 12.9679146], "approximate": true}, "geometry": {"type": "Polygon", "coordinates": [[[80.20261076646376, 12.949229752779386], [80.18658282910478, 12.958854476927163], [80.20111704659024, 12.977859946541923], [80.20652321479432, 12.976017715277262], [80.21791141861696, 12.957023143191542], [80.21580415902503, 12.945803117654089], [80.20987558189604, 12.945620527662225], [80.20261076646376, 12.949229752779386]]]}}, {"type": "Feature", "properties": {"pincode": "600101", "label": "600101, Zone 7 Ambattur, Chennai Corporation, Ambattur, Thiruvallur, Tamil Nadu, India", "centroid": [80.1930301, 13.091242], "approximate": true}, "geometry": {"type": "Polygon", "coordinates": [[[80.19266215578544, 13.104348758129246], [80.19320355127937, 13.104403891327081], [80.19840134751593, 13.099908175368526], [80.20208375289931, 13.093863048570697], [80.19691352331023, 13.082842997343734], [80.18604875307282, 13.078112039335718], [80.18436726628914, 13.082137948220781], [80.19266215578544, 13.104348758129246]]]}}, {"type": "Feature", "properties": {"pincode": "600088", "label": "600088, Ward 165, Zone 12 Alandur, Chennai Corporation, Alandur, Chennai, Tamil Nadu, India", "centroid": [80.2030403, 12.9890457], "approximate": true}, "geometry": {"type": "Polygon", "coordinates": [[[80.1922998814579, 12.995346801693435], [80.20689422441491, 13.00209732852909], [80.21790128461365, 12.999210308406829], [80.20652321479432, 12.976017715277262], [80.20111704659024, 12.977859946541923], [80.20033196559154, 12.978257024526684], [80.19376070981824, 12.987108358608323], [80.1922998814579, 12.995346801693435]]]}}, {"type": "Feature", "properties": {"pincode": "600031", "label": "600031, Zone 14 Perungudi, Chennai Corporation, Sholinganallur, Chennai, Tamil Nadu, India", "centroid": [80.1929392, 12.9698377], "approximate": true}, "geometry": {"type": "Polygon", "coordinates": [[[80.17191364203543, 12.966651645675475], [80.20033196559154, 12.978257024526684], [80.20111704659024, 12.977859946541923], [80.18658282910478, 12.958854476927163], [80.17121645199475, 12.96562230652353], [80.17191364203543, 12.966651645675475]]]}}, {"type": "Feature", "properties": {"pincode": "600110", "label": "600110, Zone 3 Madhavaram, Chennai Corporation, Madhavaram, Thiruvallur, Tamil Nadu, India", "centroid": [80.2198209, 13.1353348], "approximate": true}, "geometry": {"type": "Polygon", "coordinates": [[[80.23192517458229, 13.12855030501903], [80.22283799471008, 13.125820329818243], [80.2016363706482, 13.143161002643255], [80.22456790719826, 13.160207395077968], [80.23742794594787, 13.14381989577716], [80.23192517458229, 13.12855030501903]]]}}, {"type": "Feature", "properties": {"pincode": "600118", "label": "600118, Zone 4 Tondiarpet, Chennai Corporation, Chennai, Tamil Nadu, India", "centroid": [80.2456919, 13.1263797], "approximate": true}, "geometry": {"type": "Polygon", "coordinates": [[[80.23742794594787, 13.14381989577716], [80.262652694591, 13.140311107417684], [80.26316841514372, 13.135878735269294], [80.24274167469119, 13.118475903870676], [80.23689013806377, 13.119144161831633], [80.23192517458229, 13.12855030501903], [80.23742794594787, 13.14381989577716]]]}}, {"type": "Feature", "properties": {"pincode": "600107", "label": "600107, Zone 10 Kodambakkam, Chennai Corporation, Chennai, Tamil Nadu, India", "centroid": [80.201993, 13.0639346], "approximate": true}, "geometry": {"type": "Polygon", "coordinates": [[[80.18424540423764, 13.06161915986402], [80.18399239329867, 13.067046935245092], [80.20620642390058, 13.069755450243022], [80.21280926531547, 13.060969554324089], [80.21274368869422, 13.058971541973605], [80.20602434418521, 13.056846256086692], [80.18617722130165, 13.0596908372402], [80.18424540423764, 13.06161915986402]]]}}, {"type": "Feature", "properties": {"pincode": "600078", "label": "600078, Zone 10 Kodambakkam, Chennai Corporation, Chennai, Tamil Nadu, India", "centroid": [80.1993064, 13.0404278], "approximate": true}, "geometry": {"type": "Polygon", "coordinates": [[[80.18869954479597, 13.034631843769873], [80.19134556698405, 13.04639302038319], [80.20196185918785, 13.045648274730038], [80.20693734926064, 13.041257271582577], [80.19943366043432, 13.025644200694966], [80.19772584562426, 13.024932621985956], [80.18869954479597, 13.034631843769873]]]}}, {"type": "Feature", "properties": {"pincode": "600093", "label": "600093, Zone 10 Kodambakkam, Chennai Corporation, Chennai, Tamil Nadu, India", "centroid": [80.2000917, 13.0511863], "approximate": true}, "geometry": {"type": "Polygon", "coordinates": [[[80.18617722130165, 13.0596908372402], [80.20602434418521, 13.056846256086692], [80.20196185918785, 13.045648274730038], [80.19134556698405, 13.04639302038319], [80.18617722130165, 13.0596908372402]]]}}, {"type": "Feature", "properties": {"pincode": "600032", "label": "600032, Zone 13 Adyar, Chennai Corporation, Chennai, Tamil Nadu, India", "centroid": [80.2101991, 13.015293], "approximate": true}, "geometry": {"type": "Polygon", "coordinates": [[[80.19772584562426, 13.024932621985956], [80.19943366043432, 13.025644200694966], [80.212018010394, 13.025064014070828], [80.22173356962838, 13.00789844582657], [80.22089350205891, 13.001379813238465], [80.21905556699343, 12.999501703886814], [80.21790128461365, 12.999210308406829], [80.20689422441491, 13.00209732852909], [80.19674474436265, 13.022120922437388], [80.19772584562426, 13.024932621985956]]]}}, {"type": "Feature", "properties": {"pincode": "600096", "label": "600096, Zone 14 Perungudi, Chennai Corporation, Sholinganallur, Chennai, Tamil Nadu, India", "centroid": [80.2427584, 12.9593863], "approximate": true}, "geometry": {"type": "Polygon", "coordinates": [[[80.21791141861696, 12.957023143191542], [80.23486571153283, 12.974503210552625], [80.2413123338039, 12.975903787905375], [80.25760464514201, 12.964665360738618], [80.22680270610063, 12.932684097710888], [80.21580415902503, 12.945803117654089], [80.21791141861696, 12.957023143191542]]]}}, {"type": "Feature", "properties": {"pincode": "600097", "label": "600097, Tiruporur, Chengalpattu, Tamil Nadu, India", "centroid": [80.2095688, 12.8677939], "approximate": true}, "geometry": {"type": "Polygon", "coordinates": [[[80.19009677058239, 12.892225347402116], [80.19829651061546, 12.894037540804964], [80.23855583187535, 12.869666642549221], [80.18093861756306, 12.850719224050415], [80.1732578192311, 12.868283907384194], [80.19009677058239, 12.892225347402116]]]}}, {"type": "Feature", "properties": {"pincode": "600068", "label": "600068, Zone 2 Manali, Chennai Corporation, Madhavaram, Thiruvallur, Tamil Nadu, India", "centroid": [80.2562268, 13.1651145], "approximate": true}, "geometry": {"type": "Polygon", "coordinates": [[[80.22599901413633, 13.19535187386977], [80.27552975360527, 13.180730284144024], [80.27595465977068, 13.152620505658998], [80.2696437507824, 13.148044125685786], [80.22655050496172, 13.184026127400061], [80.22599901413633, 13.19535187386977]]]}}, {"type": "Feature", "properties": {"pincode": "600040", "label": "600040, Zone 8 Anna Nagar, Chennai Corporation, Chennai, Tamil Nadu, India", "centroid": [80.205946, 13.0854193], "approximate": true}, "geometry": {"type": "Polygon", "coordinates": [[[80.20208375289931, 13.093863048570697], [80.21403855479865, 13.091731007334715], [80.21534615624606, 13.081679360795825], [80.20783143962926, 13.077822630588573], [80.19691352331023, 13.082842997343734], [80.20208375289931, 13.093863048570697]]]}}, {"type": "Feature", "properties": {"pincode": "600026", "label": "600026, Zone 10 Kodambakkam, Chennai Corporation, Chennai, Tamil Nadu, India", "centroid": [80.2069789, 13.0487847], "approximate": true}, "geometry": {"type": "Polygon", "coordinates": [[[80.20602434418521, 13.056846256086692], [80.21274368869422, 13.058971541973605], [80.2148125264911, 13.056659119552323], [80.21648475653996, 13.044413222273562], [80.21596439754809, 13.043870459201637], [80.20693734926064, 13.041257271582577], [80.20196185918785, 13.045648274730038], [80.20602434418521, 13.056846256086692]]]}}, {"type": "Feature", "properties": {"pincode": "600049", "label": "600049, Zone 8 Anna Nagar, Chennai Corporation, Chennai, Tamil Nadu, India", "centroid": [80.2065056, 13.1062106], "approximate": true}, "geometry": {"type": "Polygon", "coordinates": [[[80.19320355127937, 13.104403891327081], [80.20316742648251, 13.118479457698609], [80.21221463766729, 13.115873607560047], [80.21706585315543, 13.106819225559331], [80.19840134751593, 13.099908175368526], [80.19320355127937, 13.104403891327081]]]}}, {"type": "Feature", "properties": {"pincode": "600042", "label": "600042, Velachery, Chennai Corporation, Chennai, Tamil Nadu, India", "centroid": [80.2190766, 12.9814799], "approximate": true}, "geometry": {"type": "Polygon", "coordinates": [[[80.20652321479432, 12.976017715277262], [80.21790128461365, 12.999210308406829], [80.21905556699343, 12.999501703886814], [80.23486571153283, 12.974503210552625], [80.21791141861696, 12.957023143191542], [80.20652321479432, 12.976017715277262]]]}}, {"type": "Feature", "properties": {"pincode": "600038", "label": "600038, Zone 8 Anna Nagar, Chennai Corporation, Chennai, Tamil Nadu, India", "centroid": [80.2087325, 13.1004324], "approximate": true}, "geometry": {"type": "Polygon", "coordinates": [[[80.20208375289931, 13.093863048570697], [80.19840134751593, 13.099908175368526], [80.21706585315543, 13.106819225559331], [80.2226970614916, 13.101306104846996], [80.21403855479865, 13.091731007334715], [80.20208375289931, 13.093863048570697]]]}}, {"type": "Feature", "properties": {"pincode": "600106", "label": "600106, Zone 8 Anna Nagar, Chennai Corporation, Chennai, Tamil Nadu, India", "centroid": [80.213126, 13.0719757], "approximate": true}, "geometry": {"type": "Polygon", "coordinates": [[[80.20783143962926, 13.077822630588573], [80.21534615624606, 13.081679360795825], [80.2183746021638, 13.079750825389006], [80.21798131817833, 13.067046660735862], [80.21280926531547, 13.060969554324089], [80.20620642390058, 13.069755450243022], [80.20783143962926, 13.077822630588573]]]}}, {"type": "Feature", "properties": {"pincode": "600099", "label": "600099, Ward 64, Zone 6 Thiru. Vi. Ka. Nagar, Chennai Corporation, Chennai, Tamil Nadu, India", "centroid": [80.2127472, 13.1270277], "approximate": true}, "geometry": {"type": "Polygon", "coordinates": [[[80.20316742648251, 13.118479457698609], [80.1933956616845, 13.140053148578394], [80.2016363706482, 13.143161002643255], [80.22283799471008, 13.125820329818243], [80.22029326045302, 13.122855342539834], [80.21221463766729, 13.115873607560047], [80.20316742648251, 13.118479457698609]]]}}, {"type": "Feature", "properties": {"pincode": "600083", "label": "600083, Zone 10 Kodambakkam, Chennai Corporation, Chennai, Tamil Nadu, India", "centroid": [80.2111426, 13.0349593], "approximate": true}, "geometry": {"type": "Polygon", "coordinates": [[[80.20693734926064, 13.041257271582577], [80.21596439754809, 13.043870459201637], [80.21661827724785, 13.028423720634697], [80.212018010394, 13.025064014070828], [80.19943366043432, 13.025644200694966], [80.20693734926064, 13.041257271582577]]]}}, {"type": "Feature", "properties": {"pincode": "600102", "label": "600102, Zone 8 Anna Nagar, Chennai Corporation, Chennai, Tamil Nadu, India", "centroid": [80.2234881, 13.0876121], "approximate": true}, "geometry": {"type": "Polygon", "coordinates": [[[80.21534615624606, 13.081679360795825], [80.21403855479865, 13.091731007334715], [80.2226970614916, 13.101306104846996], [80.22335748546702, 13.101304164303636], [80.2329402152486, 13.089655110233162], [80.23068244923563, 13.084491121281415], [80.21928735876607, 13.079731272121752], [80.2183746021638, 13.079750825389006], [80.21534615624606, 13.081679360795825]]]}}, {"type": "Feature", "properties": {"pincode": "600094", "label": "600094, Zone 9 Teynampet, Chennai Corporation, Chennai, Tamil Nadu, India", "centroid": [80.2237976, 13.0632468], "approximate": true}, "geometry": {"type": "Polygon", "coordinates": [[[80.21280926531547, 13.060969554324089], [80.21798131817833, 13.067046660735862], [80.23303332752113, 13.06818751230815], [80.23555295973523, 13.06746113577032], [80.23276399425488, 13.057631430664268], [80.2148125264911, 13.056659119552323], [80.21274368869422, 13.058971541973605], [80.21280926531547, 13.060969554324089]]]}}, {"type": "Feature", "properties": {"pincode": "600015", "label": "600015, Zone 10 Kodambakkam, Chennai Corporation, Chennai, Tamil Nadu, India", "centroid": [80.2214368, 13.0214083], "approximate": true}, "geometry": {"type": "Polygon", "coordinates": [[[80.212018010394, 13.025064014070828], [80.21661827724785, 13.028423720634697], [80.22444318598957, 13.02837745125445], [80.22911459786535, 13.01823567906559], [80.22173356962838, 13.00789844582657], [80.212018010394, 13.025064014070828]]]}}, {"type": "Feature", "properties": {"pincode": "600119", "label": "600119, Zone 15 Sholinganallur, Chennai Corporation, Sholinganallur, Chennai, Tamil Nadu, India", "centroid": [80.2272621, 12.8959264], "approximate": true}, "geometry": {"type": "Polygon", "coordinates": [[[80.22921583369012, 12.927923157154147], [80.26273906012838, 12.912475753564756], [80.24465929357811, 12.867844735955824], [80.23855583187535, 12.869666642549221], [80.19829651061546, 12.894037540804964], [80.22921583369012, 12.927923157154147]]]}}, {"type": "Feature", "properties": {"pincode": "600033", "label": "600033, Zone 10 Kodambakkam, Chennai Corporation, Chennai, Tamil Nadu, India", "centroid": [80.2215228, 13.0353817], "approximate": true}, "geometry": {"type": "Polygon", "coordinates": [[[80.21596439754809, 13.043870459201637], [80.21648475653996, 13.044413222273562], [80.22615701161956, 13.042660280622629], [80.23053655111308, 13.034758838800018], [80.22444318598957, 13.02837745125445], [80.21661827724785, 13.028423720634697], [80.21596439754809, 13.043870459201637]]]}}, {"type": "Feature", "properties": {"pincode": "600060", "label": "600060, Ward 66, Zone 6 Thiru. Vi. Ka. Nagar, Chennai Corporation, Chennai, Tamil Nadu, India", "centroid": [80.2235719, 13.1149952], "approximate": true}, "geometry": {"type": "Polygon", "coordinates": [[[80.21221463766729, 13.115873607560047], [80.22029326045302, 13.122855342539834], [80.23018563717996, 13.10656594778831], [80.22335748546702, 13.101304164303636], [80.2226970614916, 13.101306104846996], [80.21706585315543, 13.106819225559331], [80.21221463766729, 13.115873607560047]]]}}, {"type": "Feature", "properties": {"pincode": "600130", "label": "600130, Tiruporur, Chengalpattu, Tamil Nadu, India", "centroid": [80.2142721, 12.8540251], "approximate": true}, "geometry": {"type": "Polygon", "coordinates": [[[80.18093861756306, 12.850719224050415], [80.23855583187535, 12.869666642549221], [80.24465929357811, 12.867844735955824], [80.23568238803155, 12.845678784563649], [80.23471530326368, 12.843602719086663], [80.2335397869606, 12.84163293390815], [80.23216782909226, 12.839789512143321], [80.23061342157166, 12.838091248089219], [80.22889241548988, 12.836555455695505], [80.22702235944338, 12.835197792137961], [80.22502232060378, 12.834032098288825], [80.22291269035426, 12.833070257705579], [80.22071497647173, 12.832322075571296], [80.21845158396965, 12.831795178816122], [80.18561766046773, 12.825849513901998], [80.18093861756306, 12.850719224050415]]]}}, {"type": "Feature", "properties": {"pincode": "600025", "label": "600025, Zone 13 Adyar, Chennai Corporation, Chennai, Tamil Nadu, India", "centroid": [80.2347814, 13.0122469], "approximate": true}, "geometry": {"type": "Polygon", "coordinates": [[[80.22911459786535, 13.01823567906559], [80.23623154540542, 13.019739215793841], [80.24497018428475, 13.008481515688553], [80.2413554505434, 13.003525215466158], [80.2377952139084, 13.001950253854925], [80.22089350205891, 13.001379813238465], [80.22173356962838, 13.00789844582657], [80.22911459786535, 13.01823567906559]]]}}, {"type": "Feature", "properties": {"pincode": "600082", "label": "600082, Ward 66, Zone 6 Thiru. Vi. Ka. Nagar, Chennai Corporation, Chennai, Tamil Nadu, India", "centroid": [80.2257796, 13.1162832], "approximate": true}, "geometry": {"type": "Polygon", "coordinates": [[[80.23689013806377, 13.119144161831633], [80.23300181579485, 13.10824905004417], [80.23018563717996, 13.10656594778831], [80.22029326045302, 13.122855342539834], [80.22283799471008, 13.125820329818243], [80.23192517458229, 13.12855030501903], [80.23689013806377, 13.119144161831633]]]}}, {"type": "Feature", "properties": {"pincode": "600051", "label": "600051, Zone 3 Madhavaram, Chennai Corporation, Madhavaram, Thiruvallur, Tamil Nadu, India", "centroid": [80.2503172, 13.1583183], "approximate": true}, "geometry": {"type": "Polygon", "coordinates": [[[80.22456790719826, 13.160207395077968], [80.22655050496172, 13.184026127400061], [80.2696437507824, 13.148044125685786], [80.262652694591, 13.140311107417684], [80.23742794594787, 13.14381989577716], [80.22456790719826, 13.160207395077968]]]}}, {"type": "Feature", "properties": {"pincode": "600022", "label": "600022, Zone 13 Adyar, Chennai Corporation, Chennai, Tamil Nadu, India", "centroid": [80.2317635, 13.0259813], "approximate": true}, "geometry": {"type": "Polygon", "coordinates": [[[80.23053655111308, 13.034758838800018], [80.23322162679693, 13.034267995242333], [80.23809568599485, 13.022928358723625], [80.23623154540542, 13.019739215793841], [80.22911459786535, 13.01823567906559], [80.22444318598957, 13.02837745125445], [80.23053655111308, 13.034758838800018]]]}}, {"type": "Feature", "properties": {"pincode": "600024", "label": "600024, Zone 10 Kodambakkam, Chennai Corporation, Chennai, Tamil Nadu, India", "centroid": [80.2244831, 13.0510822], "approximate": true}, "geometry": {"type": "Polygon", "coordinates": [[[80.2148125264911, 13.056659119552323], [80.23276399425488, 13.057631430664268], [80.23465303408531, 13.052594666106875], [80.22615701161956, 13.042660280622629], [80.21648475653996, 13.044413222273562], [80.2148125264911, 13.056659119552323]]]}}, {"type": "Feature", "properties": {"pincode": "600029", "label": "600029, Zone 8 Anna Nagar, Chennai Corporation, Chennai, Tamil Nadu, India", "centroid": [80.2231326, 13.071678], "approximate": true}, "geometry": {"type": "Polygon", "coordinates": [[[80.2183746021638, 13.079750825389006], [80.21928735876607, 13.079731272121752], [80.23303332752113, 13.06818751230815], [80.21798131817833, 13.067046660735862], [80.2183746021638, 13.079750825389006]]]}}, {"type": "Feature", "properties": {"pincode": "600030", "label": "600030, Zone 8 Anna Nagar, Chennai Corporation, Chennai, Tamil Nadu, India", "centroid": [80.2279955, 13.0772428], "approximate": true}, "geometry": {"type": "Polygon", "coordinates": [[[80.21928735876607, 13.079731272121752], [80.23068244923563, 13.084491121281415], [80.23761748637239, 13.069041388093597], [80.23555295973523, 13.06746113577032], [80.23303332752113, 13.06818751230815], [80.21928735876607, 13.079731272121752]]]}}, {"type": "Feature", "properties": {"pincode": "600023", "label": "600023, Zone 8 Anna Nagar, Chennai Corporation, Chennai, Tamil Nadu, India", "centroid": [80.236981, 13.0982768], "approximate": true}, "geometry": {"type": "Polygon", "coordinates": [[[80.23018563717996, 13.10656594778831], [80.23300181579485, 13.10824905004417], [80.25355170772062, 13.096949047509304], [80.2467214026745, 13.090421097834428], [80.2329402152486, 13.089655110233162], [80.22335748546702, 13.101304164303636], [80.23018563717996, 13.10656594778831]]]}}, {"type": "Feature", "properties": {"pincode": "600034", "label": "600034, Zone 9 Teynampet, Chennai Corporation, Chennai, Tamil Nadu, India", "centroid": [80.2434001, 13.0579014], "approximate": true}, "geometry": {"type": "Polygon", "coordinates": [[[80.23276399425488, 13.057631430664268], [80.23555295973523, 13.06746113577032], [80.23761748637239, 13.069041388093597], [80.23882514827015, 13.06930905251972], [80.25118787466444, 13.054488850810944], [80.24496081387254, 13.047126543690732], [80.23465303408531, 13.052594666106875], [80.23276399425488, 13.057631430664268]]]}}, {"type": "Feature", "properties": {"pincode": "600011", "label": "600011, Ward 69, Zone 6 Thiru. Vi. Ka. Nagar, Chennai Corporation, Chennai, Tamil Nadu, India", "centroid": [80.2437585, 13.110119], "approximate": true}, "geometry": {"type": "Polygon", "coordinates": [[[80.23689013806377, 13.119144161831633], [80.24274167469119, 13.118475903870676], [80.26235669969189, 13.104735449028512], [80.2623641906995, 13.10385577341046], [80.26035370597762, 13.099738973527677], [80.25968190472395, 13.099095125832157], [80.25355170772062, 13.096949047509304], [80.23300181579485, 13.10824905004417], [80.23689013806377, 13.119144161831633]]]}}, {"type": "Feature", "properties": {"pincode": "600115", "label": "600115, Zone 15 Sholinganallur, Chennai Corporation, Sholinganallur, Chennai, Tamil Nadu, India", "centroid": [80.2530742, 12.9498284], "approximate": true}, "geometry": {"type": "Polygon", "coordinates": [[[80.22921583369012, 12.927923157154147], [80.22680270610063, 12.932684097710888], [80.25760464514201, 12.964665360738618], [80.28011547124557, 12.961395398875048], [80.27532985435947, 12.94395491561026], [80.27449171546402, 12.941479348919689], [80.26273906012838, 12.912475753564756], [80.22921583369012, 12.927923157154147]]]}}, {"type": "Feature", "properties": {"pincode": "600017", "label": "600017, Zone 10 Kodambakkam, Chennai Corporation, Chennai, Tamil Nadu, India", "centroid": [80.2349073, 13.0425131], "approximate": true}, "geometry": {"type": "Polygon", "coordinates": [[[80.23053655111308, 13.034758838800018], [80.22615701161956, 13.042660280622629], [80.23465303408531, 13.052594666106875], [80.24496081387254, 13.047126543690732], [80.24593113067894, 13.043263203070309], [80.24446850694298, 13.038740920443084], [80.23322162679693, 13.034267995242333], [80.23053655111308, 13.034758838800018]]]}}, {"type": "Feature", "properties": {"pincode": "600036", "label": "600036, Zone 13 Adyar, Chennai Corporation, Chennai, Tamil Nadu, India", "centroid": [80.23551, 12.9914749], "approximate": true}, "geometry": {"type": "Polygon", "coordinates": [[[80.22089350205891, 13.001379813238465], [80.2377952139084, 13.001950253854925], [80.24226266915682, 12.977691351946032], [80.2413123338039, 12.975903787905375], [80.23486571153283, 12.974503210552625], [80.21905556699343, 12.999501703886814], [80.22089350205891, 13.001379813238465]]]}}, {"type": "Feature", "properties": {"pincode": "600035", "label": "600035, Zone 9 Teynampet, Chennai Corporation, Chennai, Tamil Nadu, India", "centroid": [80.2402893, 13.0295043], "approximate": true}, "geometry": {"type": "Polygon", "coordinates": [[[80.24446850694298, 13.038740920443084], [80.24665447574239, 13.034424265078654], [80.24902879121066, 13.02666490901531], [80.23809568599485, 13.022928358723625], [80.23322162679693, 13.034267995242333], [80.24446850694298, 13.038740920443084]]]}}, {"type": "Feature", "properties": {"pincode": "600010", "label": "600010, Zone 8 Anna Nagar, Chennai Corporation, Chennai, Tamil Nadu, India", "centroid": [80.2379495, 13.0815366], "approximate": true}, "geometry": {"type": "Polygon", "coordinates": [[[80.2329402152486, 13.089655110233162], [80.2467214026745, 13.090421097834428], [80.24579853412136, 13.0733443476712], [80.23882514827015, 13.06930905251972], [80.23761748637239, 13.069041388093597], [80.23068244923563, 13.084491121281415], [80.2329402152486, 13.089655110233162]]]}}, {"type": "Feature", "properties": {"pincode": "600006", "label": "600006, Zone 9 Teynampet, Chennai Corporation, Chennai, Tamil Nadu, India", "centroid": [80.2493222, 13.0626493], "approximate": true}, "geometry": {"type": "Polygon", "coordinates": [[[80.24579853412136, 13.0733443476712], [80.24857181982199, 13.072580944323798], [80.25618711064013, 13.064607667051732], [80.25454579645128, 13.055933340012492], [80.25118787466444, 13.054488850810944], [80.23882514827015, 13.06930905251972], [80.24579853412136, 13.0733443476712]]]}}, {"type": "Feature", "properties": {"pincode": "600084", "label": "600084, Zone 8 Anna Nagar, Chennai Corporation, Chennai, Tamil Nadu, India", "centroid": [80.2544866, 13.0806778], "approximate": true}, "geometry": {"type": "Polygon", "coordinates": [[[80.25355170772062, 13.096949047509304], [80.25968190472395, 13.099095125832157], [80.26244336423858, 13.082463197871293], [80.26112988407276, 13.077855922328169], [80.24857181982199, 13.072580944323798], [80.24579853412136, 13.0733443476712], [80.2467214026745, 13.090421097834428], [80.25355170772062, 13.096949047509304]]]}}, {"type": "Feature", "properties": {"pincode": "600085", "label": "600085, Zone 13 Adyar, Chennai Corporation, Chennai, Tamil Nadu, India", "centroid": [80.2439829, 13.0191143], "approximate": true}, "geometry": {"type": "Polygon", "coordinates": [[[80.23809568599485, 13.022928358723625], [80.24902879121066, 13.02666490901531], [80.25216882055723, 13.024448398194215], [80.25635384847303, 13.013071980817134], [80.24497018428475, 13.008481515688553], [80.23623154540542, 13.019739215793841], [80.23809568599485, 13.022928358723625]]]}}, {"type": "Feature", "properties": {"pincode": "600113", "label": "600113, Zone 13 Adyar, Chennai Corporation, Chennai, Tamil Nadu, India", "centroid": [80.2436727, 12.9929205], "approximate": true}, "geometry": {"type": "Polygon", "coordinates": [[[80.2413554505434, 13.003525215466158], [80.25391520283561, 12.989961926004058], [80.24226266915682, 12.977691351946032], [80.2377952139084, 13.001950253854925], [80.2413554505434, 13.003525215466158]]]}}, {"type": "Feature", "properties": {"pincode": "600018", "label": "600018, Zone 9 Teynampet, Chennai Corporation, Chennai, Tamil Nadu, India", "centroid": [80.2544996, 13.0364219], "approximate": true}, "geometry": {"type": "Polygon", "coordinates": [[[80.24593113067894, 13.043263203070309], [80.25927916220209, 13.041486589682703], [80.26023500184154, 13.035555044301294], [80.24665447574239, 13.034424265078654], [80.24446850694298, 13.038740920443084], [80.24593113067894, 13.043263203070309]]]}}, {"type": "Feature", "properties": {"pincode": "600020", "label": "600020, Zone 13 Adyar, Chennai Corporation, Chennai, Tamil Nadu, India", "centroid": [80.2518972, 13.0002441], "approximate": true}, "geometry": {"type": "Polygon", "coordinates": [[[80.2413554505434, 13.003525215466158], [80.24497018428475, 13.008481515688553], [80.25635384847303, 13.013071980817134], [80.26283767155047, 13.010588986047953], [80.25641212539763, 12.990649743130552], [80.25391520283561, 12.989961926004058], [80.2413554505434, 13.003525215466158]]]}}, {"type": "Feature", "properties": {"pincode": "600041", "label": "600041, Zone 13 Adyar, Chennai Corporation, Chennai, Tamil Nadu, India", "centroid": [80.2576522, 12.9801533], "approximate": true}, "geometry": {"type": "Polygon", "coordinates": [[[80.24226266915682, 12.977691351946032], [80.25391520283561, 12.989961926004058], [80.25641212539763, 12.990649743130552], [80.28437226369265, 12.976906742433119], [80.28011547124557, 12.961395398875048], [80.25760464514201, 12.964665360738618], [80.2413123338039, 12.975903787905375], [80.24226266915682, 12.977691351946032]]]}}, {"type": "Feature", "properties": {"pincode": "600086", "label": "600086, Zone 9 Teynampet, Chennai Corporation, Chennai, Tamil Nadu, India", "centroid": [80.2560499, 13.0476174], "approximate": true}, "geometry": {"type": "Polygon", "coordinates": [[[80.24496081387254, 13.047126543690732], [80.25118787466444, 13.054488850810944], [80.25454579645128, 13.055933340012492], [80.25897201385857, 13.053988214714192], [80.26438099441869, 13.046320739076481], [80.25927916220209, 13.041486589682703], [80.24593113067894, 13.043263203070309], [80.24496081387254, 13.047126543690732]]]}}, {"type": "Feature", "properties": {"pincode": "600103", "label": "600103, Ponneri, Thiruvallur, Tamil Nadu, India", "centroid": [80.2682454, 13.2041971], "approximate": true}, "geometry": {"type": "Polygon", "coordinates": [[[80.22149538286293, 13.202535911976645], [80.22130126144344, 13.208890800097034], [80.23531924483106, 13.240664924690588], [80.29501948101237, 13.226022930546698], [80.28556493683543, 13.187497443081954], [80.27552975360527, 13.180730284144024], [80.22599901413633, 13.19535187386977], [80.22149538286293, 13.202535911976645]]]}}, {"type": "Feature", "properties": {"pincode": "600039", "label": "600039, Zone 4 Tondiarpet, Chennai Corporation, Chennai, Tamil Nadu, India", "centroid": [80.2511378, 13.1202396], "approximate": true}, "geometry": {"type": "Polygon", "coordinates": [[[80.26316841514372, 13.135878735269294], [80.2680975295758, 13.121433734881334], [80.26235669969189, 13.104735449028512], [80.24274167469119, 13.118475903870676], [80.26316841514372, 13.135878735269294]]]}}, {"type": "Feature", "properties": {"pincode": "600003", "label": "600003, Zone 5 Royapuram, Chennai Corporation, Chennai, Tamil Nadu, India", "centroid": [80.268303, 13.0768927], "approximate": true}, "geometry": {"type": "Polygon", "coordinates": [[[80.26244336423858, 13.082463197871293], [80.27719997401418, 13.07740751557774], [80.27770807279533, 13.070524416462446], [80.26928688010646, 13.067061693945117], [80.2672905688415, 13.0678074876699], [80.26112988407276, 13.077855922328169], [80.26244336423858, 13.082463197871293]]]}}, {"type": "Feature", "properties": {"pincode": "600001", "label": "600001, Zone 5 Royapuram, Chennai Corporation, Chennai, Tamil Nadu, India", "centroid": [80.2705671, 13.0832432], "approximate": true}, "geometry": {"type": "Polygon", "coordinates": [[[80.26035370597762, 13.099738973527677], [80.27965309054242, 13.084592760815456], [80.27719997401418, 13.07740751557774], [80.26244336423858, 13.082463197871293], [80.25968190472395, 13.099095125832157], [80.26035370597762, 13.099738973527677]]]}}, {"type": "Feature", "properties": {"pincode": "600081", "label": "600081, Zone 4 Tondiarpet, Chennai Corporation, Chennai, Tamil Nadu, India", "centroid": [80.2823785, 13.1304796], "approximate": true}, "geometry": {"type": "Polygon", "coordinates": [[[80.262652694591, 13.140311107417684], [80.2696437507824, 13.148044125685786], [80.27595465977068, 13.152620505658998], [80.32095613557809, 13.136758056085343], [80.31727828082468, 13.117856371171541], [80.2680975295758, 13.121433734881334], [80.26316841514372, 13.135878735269294], [80.262652694591, 13.140311107417684]]]}}, {"type": "Feature", "properties": {"pincode": "600002", "label": "600002, Zone 9 Teynampet, Chennai Corporation, Chennai, Tamil Nadu, India", "centroid": [80.2547308, 13.0337525], "approximate": true}, "geometry": {"type": "Polygon", "coordinates": [[[80.24902879121066, 13.02666490901531], [80.24665447574239, 13.034424265078654], [80.26023500184154, 13.035555044301294], [80.26159975161207, 13.032339611136054], [80.25216882055723, 13.024448398194215], [80.24902879121066, 13.02666490901531]]]}}, {"type": "Feature", "properties": {"pincode": "600028", "label": "600028, Zone 9 Teynampet, Chennai Corporation, Chennai, Tamil Nadu, India", "centroid": [80.2619427, 13.0254664], "approximate": true}, "geometry": {"type": "Polygon", "coordinates": [[[80.25216882055723, 13.024448398194215], [80.26159975161207, 13.032339611136054], [80.29619592185917, 13.023196671706936], [80.2940260939027, 13.014435178493384], [80.26283767155047, 13.010588986047953], [80.25635384847303, 13.013071980817134], [80.25216882055723, 13.024448398194215]]]}}, {"type": "Feature", "properties": {"pincode": "600008", "label": "600008, Zone 5 Royapuram, Chennai Corporation, Chennai, Tamil Nadu, India", "centroid": [80.2586317, 13.0711944], "approximate": true}, "geometry": {"type": "Polygon", "coordinates": [[[80.26112988407276, 13.077855922328169], [80.2672905688415, 13.0678074876699], [80.25618711064013, 13.064607667051732], [80.24857181982199, 13.072580944323798], [80.26112988407276, 13.077855922328169]]]}}, {"type": "Feature", "properties": {"pincode": "600112", "label": "600112, Zone 9 Teynampet, Chennai Corporation, Chennai, Tamil Nadu, India", "centroid": [80.2618788, 13.0603658], "approximate": true}, "geometry": {"type": "Polygon", "coordinates": [[[80.25618711064013, 13.064607667051732], [80.2672905688415, 13.0678074876699], [80.26928688010646, 13.067061693945117], [80.26886729523285, 13.060714653048132], [80.25897201385857, 13.053988214714192], [80.25454579645128, 13.055933340012492], [80.25618711064013, 13.064607667051732]]]}}, {"type": "Feature", "properties": {"pincode": "600004", "label": "600004, Zone 9 Teynampet, Chennai Corporation, Chennai, Tamil Nadu, India", "centroid": [80.2654185, 13.0381133], "approximate": true}, "geometry": {"type": "Polygon", "coordinates": [[[80.26023500184154, 13.035555044301294], [80.25927916220209, 13.041486589682703], [80.26438099441869, 13.046320739076481], [80.27697981432577, 13.045826730570635], [80.2992382194054, 13.035480127757404], [80.29619592185917, 13.023196671706936], [80.26159975161207, 13.032339611136054], [80.26023500184154, 13.035555044301294]]]}}, {"type": "Feature", "properties": {"pincode": "600021", "label": "600021, Zone 5 Royapuram, Chennai Corporation, Chennai, Tamil Nadu, India", "centroid": [80.2808607, 13.1104226], "approximate": true}, "geometry": {"type": "Polygon", "coordinates": [[[80.26235669969189, 13.104735449028512], [80.2680975295758, 13.121433734881334], [80.31727828082468, 13.117856371171541], [80.31360377998735, 13.098969351381506], [80.31158693486496, 13.098656154842924], [80.2623641906995, 13.10385577341046], [80.26235669969189, 13.104735449028512]]]}}, {"type": "Feature", "properties": {"pincode": "600090", "label": "600090, Zone 13 Adyar, Chennai Corporation, Chennai, Tamil Nadu, India", "centroid": [80.2657292, 12.9959579], "approximate": true}, "geometry": {"type": "Polygon", "coordinates": [[[80.25641212539763, 12.990649743130552], [80.26283767155047, 13.010588986047953], [80.2940260939027, 13.014435178493384], [80.28813012262184, 12.99062511185348], [80.28798877860864, 12.990083556048805], [80.28437226369265, 12.976906742433119], [80.25641212539763, 12.990649743130552]]]}}, {"type": "Feature", "properties": {"pincode": "600014", "label": "600014, Zone 9 Teynampet, Chennai Corporation, Chennai, Tamil Nadu, India", "centroid": [80.2660834, 13.0544208], "approximate": true}, "geometry": {"type": "Polygon", "coordinates": [[[80.26886729523285, 13.060714653048132], [80.27697981432577, 13.045826730570635], [80.26438099441869, 13.046320739076481], [80.25897201385857, 13.053988214714192], [80.26886729523285, 13.060714653048132]]]}}, {"type": "Feature", "properties": {"pincode": "600005", "label": "600005, Zone 9 Teynampet, Chennai Corporation, Chennai, Tamil Nadu, India", "centroid": [80.2757514, 13.0594844], "approximate": true}, "geometry": {"type": "Polygon", "coordinates": [[[80.27770807279533, 13.070524416462446], [80.30440275782976, 13.056329686522819], [80.2992382194054, 13.035480127757404], [80.27697981432577, 13.045826730570635], [80.26886729523285, 13.060714653048132], [80.26928688010646, 13.067061693945117], [80.27770807279533, 13.070524416462446]]]}}, {"type": "Feature", "properties": {"pincode": "600079", "label": "600079, Zone 5 Royapuram, Chennai Corporation, Chennai, Tamil Nadu, India", "centroid": [80.2790093, 13.093579], "approximate": true}, "geometry": {"type": "Polygon", "coordinates": [[[80.2623641906995, 13.10385577341046], [80.31158693486496, 13.098656154842924], [80.27965309054242, 13.084592760815456], [80.26035370597762, 13.099738973527677], [80.2623641906995, 13.10385577341046]]]}}, {"type": "Feature", "properties": {"pincode": "600120", "label": "600120, Ponneri, Thiruvallur, Tamil Nadu, India", "centroid": [80.2819037, 13.2576358], "approximate": true}, "geometry": {"type": "Polygon", "coordinates": [[[80.29501948101237, 13.226022930546698], [80.23531924483106, 13.240664924690588], [80.22933755047049, 13.270592750419338], [80.27747386930459, 13.279820049930866], [80.27970531679843, 13.280137622674385], [80.28195775818699, 13.280240365790203], [80.28420968495931, 13.280127297887372], [80.2864395934622, 13.279799498344378], [80.28862619040935, 13.279260097005256], [80.2907485963754, 13.27851424427971], [80.29278654532429, 13.277569061933578], [80.29472057825888, 13.27643357504097], [80.29653222913622, 13.275118625750077], [80.29820420126808, 13.273636769688835], [80.29972053251801, 13.272002156002985], [80.30106674771528, 13.27023039217554], [80.30222999682907, 13.268338394922338], [80.30319917758472, 13.266344228591265], [80.31661649286828, 13.234854344724253], [80.29501948101237, 13.226022930546698]]]}}, {"type": "Feature", "properties": {"pincode": "600019", "label": "600019, Zone 1 Tiruvottiyur, Chennai Corporation, Madhavaram, Thiruvallur, Tamil Nadu, India", "centroid": [80.2952964, 13.1656816], "approximate": true}, "geometry": {"type": "Polygon", "coordinates": [[[80.27552975360527, 13.180730284144024], [80.28556493683543, 13.187497443081954], [80.32721952991872, 13.168941721054665], [80.32095613557809, 13.136758056085343], [80.27595465977068, 13.152620505658998], [80.27552975360527, 13.180730284144024]]]}}, {"type": "Feature", "properties": {"pincode": "600009", "label": "600009, Zone 5 Royapuram, Chennai Corporation, Chennai, Tamil Nadu, India", "centroid": [80.2860799, 13.0781538], "approximate": true}, "geometry": {"type": "Polygon", "coordinates": [[[80.27770807279533, 13.070524416462446], [80.27719997401418, 13.07740751557774], [80.27965309054242, 13.084592760815456], [80.31158693486496, 13.098656154842924], [80.31360377998735, 13.098969351381506], [80.30873133248258, 13.07392090368586], [80.3084879703835, 13.072819644578011], [80.30440275782976, 13.056329686522819], [80.27770807279533, 13.070524416462446]]]}}, {"type": "Feature", "properties": {"pincode": "600057", "label": "600057, Zone 1 Tiruvottiyur, Chennai Corporation, Madhavaram, Thiruvallur, Tamil Nadu, India", "centroid": [80.308739, 13.1946575], "approximate": true}, "geometry": {"type": "Polygon", "coordinates": [[[80.28556493683543, 13.187497443081954], [80.29501948101237, 13.226022930546698], [80.31661649286828, 13.234854344724253], [80.33003019203674, 13.203363511566456], [80.33079258458959, 13.201295758730513], [80.33134634626902, 13.199165218327309], [80.33168624383035, 13.196992045492442], [80.33180906753843, 13.194796798156407], [80.3317136613226, 13.192600242538418], [80.33140093349465, 13.190423156689713], [80.32721952991872, 13.168941721054665], [80.28556493683543, 13.187497443081954]]]}}]}